{"type": "FeatureCollection", "features": [ {"type": "Feature", "properties": {"norad_id": 66326, "name": "STARLINK-35479", "group": "last-30-days", "lat": -3.4623817143655247, "lon": 30.69105489220507, "alt_km": 414.85042881707705, "timestamp": "2025-12-04T05:42:42.156322+00:00", "meta": {"OBJECT_NAME": "STARLINK-35479", "OBJECT_ID": "2025-253H", "EPOCH": "2025-12-03T15:49:14.832480", "MEAN_MOTION": 15.50617936, "ECCENTRICITY": 0.00011664, "INCLINATION": 43.0004, "RA_OF_ASC_NODE": 37.8005, "ARG_OF_PERICENTER": 257.339, "MEAN_ANOMALY": 102.734, "EPHEMERIS_TYPE": 0, "CLASSIFICATION_TYPE": "U", "NORAD_CAT_ID": 66326, "ELEMENT_SET_NO": 999, "REV_AT_EPOCH": 552, "BSTAR": 0.0016625411, "MEAN_MOTION_DOT": 0.00098564, "MEAN_MOTION_DDOT": 0}, "tle": {"line1": "1 66326U 25253H   25337.65919945  .00098564  00000+0  16625-2 0  9991", "line2": "2 66326  43.0004  37.8005 0001166 257.3390 102.7340 15.50617936  5524"}}, "geometry": {"type": "Point", "coordinates": [30.69105489220507, -3.4623817143655247]}}, {"type": "Feature", "properties": {"norad_id": 66327, "name": "STARLINK-35507", "group": "last-30-days", "lat": -11.139865133660196, "lon": 22.245563256656226, "alt_km": 414.4282202336253, "timestamp": "2025-12-04T05:42:42.156336+00:00", "meta": {"OBJECT_NAME": "STARLINK-35507", "OBJECT_ID": "2025-253J", "EPOCH": "2025-12-03T12:46:42.428928", "MEAN_MOTION": 15.50619877, "ECCENTRICITY": 0.00014974, "INCLINATION": 43.0002, "RA_OF_ASC_NODE": 38.5738, "ARG_OF_PERICENTER": 351.1702, "MEAN_ANOMALY": 8.9131, "EPHEMERIS_TYPE": 0, "CLASSIFICATION_TYPE": "U", "NORAD_CAT_ID": 66327, "ELEMENT_SET_NO": 999, "REV_AT_EPOCH": 550, "BSTAR": 0.0024915595, "MEAN_MOTION_DOT": 0.00148855, "MEAN_MOTION_DDOT": 0}, "tle": {"line1": "1 66327U 25253J   25337.53243552  .00148855  00000+0  24916-2 0  9994", "line2": "2 66327  43.0002  38.5738 0001497 351.1702   8.9131 15.50619877  5500"}}, "geometry": {"type": "Point", "coordinates": [22.245563256656226, -11.139865133660196]}}, {"type": "Feature", "properties": {"norad_id": 66328, "name": "STARLINK-35460", "group": "last-30-days", "lat": -33.387843541014654, "lon": -10.48000558335008, "alt_km": 446.2143035750896, "timestamp": "2025-12-04T05:42:42.156349+00:00", "meta": {"OBJECT_NAME": "STARLINK-35460", "OBJECT_ID": "2025-253K", "EPOCH": "2025-12-03T22:00:03.000096", "MEAN_MOTION": 15.40708749, "ECCENTRICITY": 0.00016231, "INCLINATION": 43.0006, "RA_OF_ASC_NODE": 36.384, "ARG_OF_PERICENTER": 265.0223, "MEAN_ANOMALY": 57.0753, "EPHEMERIS_TYPE": 0, "CLASSIFICATION_TYPE": "U", "NORAD_CAT_ID": 66328, "ELEMENT_SET_NO": 999, "REV_AT_EPOCH": 560, "BSTAR": -0.0018371789, "MEAN_MOTION_DOT": -0.00076307, "MEAN_MOTION_DDOT": 0}, "tle": {"line1": "1 66328U 25253K   25337.91670139 -.00076307  00000+0 -18372-2 0  9995", "line2": "2 66328  43.0006  36.3840 0001623 265.0223  57.0753 15.40708749  5609"}}, "geometry": {"type": "Point", "coordinates": [-10.48000558335008, -33.387843541014654]}}, {"type": "Feature", "properties": {"norad_id": 66329, "name": "STARLINK-35505", "group": "last-30-days", "lat": -12.325027974146684, "lon": 20.88831540098239, "alt_km": 414.90492221443674, "timestamp": "2025-12-04T05:42:42.156360+00:00", "meta": {"OBJECT_NAME": "STARLINK-35505", "OBJECT_ID": "2025-253L", "EPOCH": "2025-12-03T12:47:11.075712", "MEAN_MOTION": 15.50665124, "ECCENTRICITY": 0.00023019, "INCLINATION": 43, "RA_OF_ASC_NODE": 38.5759, "ARG_OF_PERICENTER": 270.1873, "MEAN_ANOMALY": 89.8723, "EPHEMERIS_TYPE": 0, "CLASSIFICATION_TYPE": "U", "NORAD_CAT_ID": 66329, "ELEMENT_SET_NO": 999, "REV_AT_EPOCH": 550, "BSTAR": 0.0020206657, "MEAN_MOTION_DOT": 0.00120414, "MEAN_MOTION_DDOT": 0}, "tle": {"line1": "1 66329U 25253L   25337.53276708  .00120414  00000+0  20207-2 0  9995", "line2": "2 66329  43.0000  38.5759 0002301 270.1873  89.8723 15.50665124  5508"}}, "geometry": {"type": "Point", "coordinates": [20.88831540098239, -12.325027974146684]}}, {"type": "Feature", "properties": {"norad_id": 66330, "name": "STARLINK-35512", "group": "last-30-days", "lat": -32.34383076693413, "lon": -102.47745120098055, "alt_km": 446.4384692389176, "timestamp": "2025-12-04T05:42:42.156388+00:00", "meta": {"OBJECT_NAME": "STARLINK-35512", "OBJECT_ID": "2025-253M", "EPOCH": "2025-12-03T22:00:03.000096", "MEAN_MOTION": 15.40737673, "ECCENTRICITY": 0.00011126, "INCLINATION": 43.0009, "RA_OF_ASC_NODE": 36.5672, "ARG_OF_PERICENTER": 245.0251, "MEAN_ANOMALY": 2.5131, "EPHEMERIS_TYPE": 0, "CLASSIFICATION_TYPE": "U", "NORAD_CAT_ID": 66330, "ELEMENT_SET_NO": 999, "REV_AT_EPOCH": 551, "BSTAR": -0.0049878066, "MEAN_MOTION_DOT": -0.00203449, "MEAN_MOTION_DDOT": 0}, "tle": {"line1": "1 66330U 25253M   25337.91670139 -.00203449  00000+0 -49878-2 0  9992", "line2": "2 66330  43.0009  36.5672 0001112 245.0251   2.5131 15.40737673  5515"}}, "geometry": {"type": "Point", "coordinates": [-102.47745120098055, -32.34383076693413]}}, {"type": "Feature", "properties": {"norad_id": 66331, "name": "STARLINK-35257", "group": "last-30-days", "lat": 4.427158221888264, "lon": 39.15112461401813, "alt_km": 413.29760380349217, "timestamp": "2025-12-04T05:42:42.156400+00:00", "meta": {"OBJECT_NAME": "STARLINK-35257", "OBJECT_ID": "2025-253N", "EPOCH": "2025-12-03T12:40:46.235424", "MEAN_MOTION": 15.50612497, "ECCENTRICITY": 0.00017622, "INCLINATION": 42.9995, "RA_OF_ASC_NODE": 38.5379, "ARG_OF_PERICENTER": 289.6299, "MEAN_ANOMALY": 70.4371, "EPHEMERIS_TYPE": 0, "CLASSIFICATION_TYPE": "U", "NORAD_CAT_ID": 66331, "ELEMENT_SET_NO": 999, "REV_AT_EPOCH": 550, "BSTAR": 0.0018759457, "MEAN_MOTION_DOT": 0.00111424, "MEAN_MOTION_DDOT": 0}, "tle": {"line1": "1 66331U 25253N   25337.52831291  .00111424  00000+0  18759-2 0  9991", "line2": "2 66331  42.9995  38.5379 0001762 289.6299  70.4371 15.50612497  5507"}}, "geometry": {"type": "Point", "coordinates": [39.15112461401813, 4.427158221888264]}}, {"type": "Feature", "properties": {"norad_id": 66332, "name": "STARLINK-35322", "group": "last-30-days", "lat": -0.9045711111992357, "lon": 33.430574395964335, "alt_km": 413.30934186704417, "timestamp": "2025-12-04T05:42:42.156413+00:00", "meta": {"OBJECT_NAME": "STARLINK-35322", "OBJECT_ID": "2025-253P", "EPOCH": "2025-12-02T05:48:04.239936", "MEAN_MOTION": 15.50671276, "ECCENTRICITY": 9.86e-05, "INCLINATION": 43.0002, "RA_OF_ASC_NODE": 46.0856, "ARG_OF_PERICENTER": 282.8379, "MEAN_ANOMALY": 77.2371, "EPHEMERIS_TYPE": 0, "CLASSIFICATION_TYPE": "U", "NORAD_CAT_ID": 66332, "ELEMENT_SET_NO": 999, "REV_AT_EPOCH": 530, "BSTAR": 0.001523, "MEAN_MOTION_DOT": 0.00090339, "MEAN_MOTION_DDOT": 0}, "tle": {"line1": "1 66332U 25253P   25336.24171574  .00090339  00000+0  15230-2 0  9993", "line2": "2 66332  43.0002  46.0856 0000986 282.8379  77.2371 15.50671276  5307"}}, "geometry": {"type": "Point", "coordinates": [33.430574395964335, -0.9045711111992357]}}, {"type": "Feature", "properties": {"norad_id": 66333, "name": "STARLINK-35400", "group": "last-30-days", "lat": 3.3181060720182556, "lon": 37.9556583774644, "alt_km": 413.58919284513104, "timestamp": "2025-12-04T05:42:42.156424+00:00", "meta": {"OBJECT_NAME": "STARLINK-35400", "OBJECT_ID": "2025-253Q", "EPOCH": "2025-12-03T04:57:28.692576", "MEAN_MOTION": 15.5061405, "ECCENTRICITY": 7.59e-05, "INCLINATION": 42.9978, "RA_OF_ASC_NODE": 40.4243, "ARG_OF_PERICENTER": 264.7764, "MEAN_ANOMALY": 95.3009, "EPHEMERIS_TYPE": 0, "CLASSIFICATION_TYPE": "U", "NORAD_CAT_ID": 66333, "ELEMENT_SET_NO": 999, "REV_AT_EPOCH": 545, "BSTAR": 0.0019637, "MEAN_MOTION_DOT": 0.00116738, "MEAN_MOTION_DDOT": 0}, "tle": {"line1": "1 66333U 25253Q   25337.20658209  .00116738  00000+0  19637-2 0  9993", "line2": "2 66333  42.9978  40.4243 0000759 264.7764  95.3009 15.50614050  5453"}}, "geometry": {"type": "Point", "coordinates": [37.9556583774644, 3.3181060720182556]}}, {"type": "Feature", "properties": {"norad_id": 66334, "name": "STARLINK-35407", "group": "last-30-days", "lat": -0.1691409464722986, "lon": 34.21786210193916, "alt_km": 412.515795368603, "timestamp": "2025-12-04T05:42:42.156435+00:00", "meta": {"OBJECT_NAME": "STARLINK-35407", "OBJECT_ID": "2025-253R", "EPOCH": "2025-12-02T05:47:54.704832", "MEAN_MOTION": 15.50606846, "ECCENTRICITY": 0.000182, "INCLINATION": 43.0002, "RA_OF_ASC_NODE": 46.0853, "ARG_OF_PERICENTER": 277.7851, "MEAN_ANOMALY": 82.2803, "EPHEMERIS_TYPE": 0, "CLASSIFICATION_TYPE": "U", "NORAD_CAT_ID": 66334, "ELEMENT_SET_NO": 999, "REV_AT_EPOCH": 530, "BSTAR": 0.0026112, "MEAN_MOTION_DOT": 0.00156096, "MEAN_MOTION_DDOT": 0}, "tle": {"line1": "1 66334U 25253R   25336.24160538  .00156096  00000+0  26112-2 0  9997", "line2": "2 66334  43.0002  46.0853 0001820 277.7851  82.2803 15.50606846  5309"}}, "geometry": {"type": "Point", "coordinates": [34.21786210193916, -0.1691409464722986]}}, {"type": "Feature", "properties": {"norad_id": 66335, "name": "STARLINK-35417", "group": "last-30-days", "lat": -9.737110811676132, "lon": -134.58503739075803, "alt_km": 444.7651751683579, "timestamp": "2025-12-04T05:42:42.156445+00:00", "meta": {"OBJECT_NAME": "STARLINK-35417", "OBJECT_ID": "2025-253S", "EPOCH": "2025-12-03T22:00:03.000096", "MEAN_MOTION": 15.40754518, "ECCENTRICITY": 0.00014971, "INCLINATION": 43.001, "RA_OF_ASC_NODE": 36.6557, "ARG_OF_PERICENTER": 263.0818, "MEAN_ANOMALY": 307.0643, "EPHEMERIS_TYPE": 0, "CLASSIFICATION_TYPE": "U", "NORAD_CAT_ID": 66335, "ELEMENT_SET_NO": 999, "REV_AT_EPOCH": 551, "BSTAR": -0.00342875, "MEAN_MOTION_DOT": -0.0014117, "MEAN_MOTION_DDOT": 0}, "tle": {"line1": "1 66335U 25253S   25337.91670139 -.00141170  00000+0 -34287-2 0  9997", "line2": "2 66335  43.0010  36.6557 0001497 263.0818 307.0643 15.40754518  5518"}}, "geometry": {"type": "Point", "coordinates": [-134.58503739075803, -9.737110811676132]}}]}